[{"OBJECT_NAME":"STARLINK-31077","OBJECT_ID":"2023-203V","EPOCH":"2026-03-09T00:05:30.944832","MEAN_MOTION":15.27563784,"ECCENTRICITY":0.00011202,"INCLINATION":43.0102,"RA_OF_ASC_NODE":71.2186,"ARG_OF_PERICENTER":235.6806,"MEAN_ANOMALY":124.394,"EPHEMERIS_TYPE":0,"CLASSIFICATION_TYPE":"U","NORAD_CAT_ID":58637,"ELEMENT_SET_NO":999,"REV_AT_EPOCH":12468,"BSTAR":4.0295036e-5,"MEAN_MOTION_DOT":8.46e-6,"MEAN_MOTION_DDOT":0},{"OBJECT_NAME":"KUIPER-00274","OBJECT_ID":"2026-030AE","EPOCH":"2026-03-09T22:00:01.999584","MEAN_MOTION":15.29896925,"ECCENTRICITY":0.00182929,"INCLINATION":51.8831,"RA_OF_ASC_NODE":218.6923,"ARG_OF_PERICENTER":71.2033,"MEAN_ANOMALY":115.2248,"EPHEMERIS_TYPE":0,"CLASSIFICATION_TYPE":"U","NORAD_CAT_ID":67792,"ELEMENT_SET_NO":999,"REV_AT_EPOCH":410,"BSTAR":0.0017989756,"MEAN_MOTION_DOT":0.00053102,"MEAN_MOTION_DDOT":0}]
